[{"OBJECT_NAME":"FENGYUN 3E","OBJECT_ID":"2021-062A","EPOCH":"2026-03-09T23:36:50.973120","MEAN_MOTION":14.19894265,"ECCENTRICITY":0.00022297,"INCLINATION":98.7518,"RA_OF_ASC_NODE":73.4944,"ARG_OF_PERICENTER":41.3749,"MEAN_ANOMALY":318.7596,"EPHEMERIS_TYPE":0,"CLASSIFICATION_TYPE":"U","NORAD_CAT_ID":49008,"ELEMENT_SET_NO":999,"REV_AT_EPOCH":24250,"BSTAR":7.5486824e-5,"MEAN_MOTION_DOT":1.16e-6,"MEAN_MOTION_DDOT":0},{"OBJECT_NAME":"FENGYUN 1C DEB","OBJECT_ID":"1999-025DZB","EPOCH":"2026-02-27T05:25:20.124768","MEAN_MOTION":14.10462783,"ECCENTRICITY":0.004522,"INCLINATION":98.7028,"RA_OF_ASC_NODE":59.3621,"ARG_OF_PERICENTER":130.8616,"MEAN_ANOMALY":229.6488,"EPHEMERIS_TYPE":0,"CLASSIFICATION_TYPE":"U","NORAD_CAT_ID":36681,"ELEMENT_SET_NO":999,"REV_AT_EPOCH":73836,"BSTAR":0.00058686,"MEAN_MOTION_DOT":1.012e-5,"MEAN_MOTION_DDOT":0}]
